[{"OBJECT_NAME":"GAOFEN-9 03","OBJECT_ID":"2020-039A","EPOCH":"2026-03-09T21:55:15.121344","MEAN_MOTION":15.30529116,"ECCENTRICITY":0.0013094,"INCLINATION":97.5219,"RA_OF_ASC_NODE":201.2158,"ARG_OF_PERICENTER":77.4533,"MEAN_ANOMALY":282.8172,"EPHEMERIS_TYPE":0,"CLASSIFICATION_TYPE":"U","NORAD_CAT_ID":45794,"ELEMENT_SET_NO":999,"REV_AT_EPOCH":31856,"BSTAR":0.00039258132,"MEAN_MOTION_DOT":0.00011544,"MEAN_MOTION_DDOT":0},{"OBJECT_NAME":"STARLINK-35812","OBJECT_ID":"2025-268T","EPOCH":"2026-03-09T03:24:28.051776","MEAN_MOTION":15.27584612,"ECCENTRICITY":0.00012752,"INCLINATION":42.9983,"RA_OF_ASC_NODE":350.3598,"ARG_OF_PERICENTER":269.6091,"MEAN_ANOMALY":90.4615,"EPHEMERIS_TYPE":0,"CLASSIFICATION_TYPE":"U","NORAD_CAT_ID":66574,"ELEMENT_SET_NO":999,"REV_AT_EPOCH":1787,"BSTAR":0.0010661444,"MEAN_MOTION_DOT":0.00029196,"MEAN_MOTION_DDOT":0}]
